[Satellite]
VERSION=1.1
NAME=DELFI-C3 (DO-64)
NICKNAME=DELFI-C3 (DO-64)
TLE1=1 32789U 08021G   19317.81198435  .00001605  00000-0  11040-3 0  9991
TLE2=2 32789  97.4476   2.8933 0011475 345.4527  14.6369 15.07250052629273
STATUS=0
